[{"OBJECT_NAME":"STARLINK-3747","OBJECT_ID":"2022-041AX","EPOCH":"2026-03-09T09:00:18.055872","MEAN_MOTION":15.08835851,"ECCENTRICITY":0.00013319,"INCLINATION":53.2168,"RA_OF_ASC_NODE":90.5307,"ARG_OF_PERICENTER":87.2438,"MEAN_ANOMALY":272.8707,"EPHEMERIS_TYPE":0,"CLASSIFICATION_TYPE":"U","NORAD_CAT_ID":52306,"ELEMENT_SET_NO":999,"REV_AT_EPOCH":21581,"BSTAR":6.2714625e-5,"MEAN_MOTION_DOT":7.1e-6,"MEAN_MOTION_DDOT":0},{"OBJECT_NAME":"OBJECT C","OBJECT_ID":"2025-013C","EPOCH":"2026-03-09T23:45:12.010176","MEAN_MOTION":15.10546453,"ECCENTRICITY":0.00141064,"INCLINATION":97.6424,"RA_OF_ASC_NODE":238.1264,"ARG_OF_PERICENTER":358.7826,"MEAN_ANOMALY":1.3366,"EPHEMERIS_TYPE":0,"CLASSIFICATION_TYPE":"U","NORAD_CAT_ID":62731,"ELEMENT_SET_NO":999,"REV_AT_EPOCH":6235,"BSTAR":0.00030324361,"MEAN_MOTION_DOT":4.947e-5,"MEAN_MOTION_DDOT":0}]
